METOP-C                 
1 43689U 18087A   26095.77991710  .00000176  00000+0  10044-3 0  9992
2 43689  98.6710 156.6856 0001736  63.0739 297.0616 14.21506730384549
GEO-KOMPSAT-2A          
1 43823U 18100A   26095.81572563 -.00000342  00000+0  00000+0 0  9997
2 43823   0.0515  36.5225 0001969  25.0153 194.4970  1.00273121 26905
METEOR-M2 2             
1 44387U 19038A   26095.89059176 -.00000089  00000+0 -18634-4 0  9998
2 44387  98.9120  82.1235 0000721 165.6510 194.4689 14.24344530351002
ARKTIKA-M 1             
1 47719U 21016A   26086.24697042 -.00000098  00000+0  00000+0 0  9990
2 47719  63.2179  69.3783 7253959 269.5617  15.0995  2.00616454 37142
FENGYUN 3E              
1 49008U 21062A   26095.90244881 -.00000070  00000+0 -12039-4 0  9997
2 49008  98.7512 100.1134 0000878 339.5528  20.5613 14.19897640246326
GOES 18                 
1 51850U 22021A   26095.71782896  .00000098  00000+0  00000+0 0  9991
2 51850   0.0479  40.6556 0000631  33.1922 241.5875  1.00270694  5867
NOAA 21 (JPSS-2)        
1 54234U 22150A   26095.85855424  .00000129  00000+0  82082-4 0  9996
2 54234  98.7586  35.8184 0002608  59.0198 301.1234 14.19559802176282
METEOSAT-12 (MTG-I1)    
1 54743U 22170C   26095.81619560 -.00000005  00000+0  00000+0 0  9997
2 54743   0.7413  26.6706 0001491 304.5812 156.3944  1.00274951 12256
TIANMU-1 03             
1 55973U 23039A   26095.89254066  .00020966  00000+0  44223-3 0  9998
2 55973  97.5208 267.1560 0002951  21.8260 338.3113 15.45248989169660
TIANMU-1 04             
1 55974U 23039B   26095.84348769  .00021300  00000+0  44126-3 0  9993
2 55974  97.5140 266.2593 0003448  13.4332 346.7007 15.45773599169666
TIANMU-1 05             
1 55975U 23039C   26095.80543149  .00020725  00000+0  43813-3 0  9991
2 55975  97.5186 266.7072 0003218  44.5069 315.6438 15.45184652169637
TIANMU-1 06             
1 55976U 23039D   26095.84312606  .00021032  00000+0  43672-3 0  9993
2 55976  97.5195 267.3119 0003388  36.6912 323.4568 15.45707759169667
FENGYUN 3G              
1 56232U 23055A   26095.85505932  .00034229  00000+0  53031-3 0  9996
2 56232  49.9947 358.9903 0003989  49.5915 310.5400 15.53646997168767
METEOR-M2 3             
1 57166U 23091A   26095.86870251  .00000028  00000+0  31005-4 0  9991
2 57166  98.6162 152.3021 0004433  36.0425 324.1052 14.24040719144229
TIANMU-1 07             
1 57399U 23101A   26095.87123865  .00008436  00000+0  29824-3 0  9990
2 57399  97.2665 148.2088 0004426  78.3990 281.7747 15.29412290150594
TIANMU-1 08             
1 57400U 23101B   26094.53033657  .00000459  00000+0  18611-4 0  9994
2 57400  97.2662 146.6773 0005376  60.6646 299.5131 15.29475906150388
TIANMU-1 09             
1 57401U 23101C   26095.88798831  .00009272  00000+0  32728-3 0  9992
2 57401  97.2612 147.4599 0004868  75.7161 284.4620 15.29434460150592
