[{"OBJECT_NAME":"METOP-C","OBJECT_ID":"2018-087A","EPOCH":"2026-04-05T18:43:04.837440","MEAN_MOTION":14.2150673,"ECCENTRICITY":0.0001736,"INCLINATION":98.671,"RA_OF_ASC_NODE":156.6856,"ARG_OF_PERICENTER":63.0739,"MEAN_ANOMALY":297.0616,"EPHEMERIS_TYPE":0,"CLASSIFICATION_TYPE":"U","NORAD_CAT_ID":43689,"ELEMENT_SET_NO":999,"REV_AT_EPOCH":38454,"BSTAR":0.00010044,"MEAN_MOTION_DOT":1.76e-6,"MEAN_MOTION_DDOT":0},{"OBJECT_NAME":"GEO-KOMPSAT-2A","OBJECT_ID":"2018-100A","EPOCH":"2026-04-05T19:34:38.694432","MEAN_MOTION":1.00273121,"ECCENTRICITY":0.0001969,"INCLINATION":0.0515,"RA_OF_ASC_NODE":36.5225,"ARG_OF_PERICENTER":25.0153,"MEAN_ANOMALY":194.497,"EPHEMERIS_TYPE":0,"CLASSIFICATION_TYPE":"U","NORAD_CAT_ID":43823,"ELEMENT_SET_NO":999,"REV_AT_EPOCH":2690,"BSTAR":0,"MEAN_MOTION_DOT":-3.42e-6,"MEAN_MOTION_DDOT":0},{"OBJECT_NAME":"METEOR-M2 2","OBJECT_ID":"2019-038A","EPOCH":"2026-04-05T21:22:27.128064","MEAN_MOTION":14.2434453,"ECCENTRICITY":7.21e-5,"INCLINATION":98.912,"RA_OF_ASC_NODE":82.1235,"ARG_OF_PERICENTER":165.651,"MEAN_ANOMALY":194.4689,"EPHEMERIS_TYPE":0,"CLASSIFICATION_TYPE":"U","NORAD_CAT_ID":44387,"ELEMENT_SET_NO":999,"REV_AT_EPOCH":35100,"BSTAR":-1.8634e-5,"MEAN_MOTION_DOT":-8.9e-7,"MEAN_MOTION_DDOT":0},{"OBJECT_NAME":"ARKTIKA-M 1","OBJECT_ID":"2021-016A","EPOCH":"2026-03-27T05:55:38.244288","MEAN_MOTION":2.00616454,"ECCENTRICITY":0.7253959,"INCLINATION":63.2179,"RA_OF_ASC_NODE":69.3783,"ARG_OF_PERICENTER":269.5617,"MEAN_ANOMALY":15.0995,"EPHEMERIS_TYPE":0,"CLASSIFICATION_TYPE":"U","NORAD_CAT_ID":47719,"ELEMENT_SET_NO":999,"REV_AT_EPOCH":3714,"BSTAR":0,"MEAN_MOTION_DOT":-9.8e-7,"MEAN_MOTION_DDOT":0},{"OBJECT_NAME":"FENGYUN 3E","OBJECT_ID":"2021-062A","EPOCH":"2026-04-05T21:39:31.577184","MEAN_MOTION":14.1989764,"ECCENTRICITY":8.78e-5,"INCLINATION":98.7512,"RA_OF_ASC_NODE":100.1134,"ARG_OF_PERICENTER":339.5528,"MEAN_ANOMALY":20.5613,"EPHEMERIS_TYPE":0,"CLASSIFICATION_TYPE":"U","NORAD_CAT_ID":49008,"ELEMENT_SET_NO":999,"REV_AT_EPOCH":24632,"BSTAR":-1.2039e-5,"MEAN_MOTION_DOT":-7.0e-7,"MEAN_MOTION_DDOT":0},{"OBJECT_NAME":"GOES 18","OBJECT_ID":"2022-021A","EPOCH":"2026-04-05T17:13:40.422144","MEAN_MOTION":1.00270694,"ECCENTRICITY":6.31e-5,"INCLINATION":0.0479,"RA_OF_ASC_NODE":40.6556,"ARG_OF_PERICENTER":33.1922,"MEAN_ANOMALY":241.5875,"EPHEMERIS_TYPE":0,"CLASSIFICATION_TYPE":"U","NORAD_CAT_ID":51850,"ELEMENT_SET_NO":999,"REV_AT_EPOCH":586,"BSTAR":0,"MEAN_MOTION_DOT":9.8e-7,"MEAN_MOTION_DDOT":0},{"OBJECT_NAME":"NOAA 21 (JPSS-2)","OBJECT_ID":"2022-150A","EPOCH":"2026-04-05T20:36:19.086336","MEAN_MOTION":14.19559802,"ECCENTRICITY":0.0002608,"INCLINATION":98.7586,"RA_OF_ASC_NODE":35.8184,"ARG_OF_PERICENTER":59.0198,"MEAN_ANOMALY":301.1234,"EPHEMERIS_TYPE":0,"CLASSIFICATION_TYPE":"U","NORAD_CAT_ID":54234,"ELEMENT_SET_NO":999,"REV_AT_EPOCH":17628,"BSTAR":8.2082e-5,"MEAN_MOTION_DOT":1.29e-6,"MEAN_MOTION_DDOT":0},{"OBJECT_NAME":"METEOSAT-12 (MTG-I1)","OBJECT_ID":"2022-170C","EPOCH":"2026-04-05T19:35:19.299840","MEAN_MOTION":1.00274951,"ECCENTRICITY":0.0001491,"INCLINATION":0.7413,"RA_OF_ASC_NODE":26.6706,"ARG_OF_PERICENTER":304.5812,"MEAN_ANOMALY":156.3944,"EPHEMERIS_TYPE":0,"CLASSIFICATION_TYPE":"U","NORAD_CAT_ID":54743,"ELEMENT_SET_NO":999,"REV_AT_EPOCH":1225,"BSTAR":0,"MEAN_MOTION_DOT":-5.0e-8,"MEAN_MOTION_DDOT":0},{"OBJECT_NAME":"TIANMU-1 03","OBJECT_ID":"2023-039A","EPOCH":"2026-04-05T21:25:15.513024","MEAN_MOTION":15.45248989,"ECCENTRICITY":0.0002951,"INCLINATION":97.5208,"RA_OF_ASC_NODE":267.156,"ARG_OF_PERICENTER":21.826,"MEAN_ANOMALY":338.3113,"EPHEMERIS_TYPE":0,"CLASSIFICATION_TYPE":"U","NORAD_CAT_ID":55973,"ELEMENT_SET_NO":999,"REV_AT_EPOCH":16966,"BSTAR":0.00044223,"MEAN_MOTION_DOT":0.00020966,"MEAN_MOTION_DDOT":0},{"OBJECT_NAME":"TIANMU-1 04","OBJECT_ID":"2023-039B","EPOCH":"2026-04-05T20:14:37.336416","MEAN_MOTION":15.45773599,"ECCENTRICITY":0.0003448,"INCLINATION":97.514,"RA_OF_ASC_NODE":266.2593,"ARG_OF_PERICENTER":13.4332,"MEAN_ANOMALY":346.7007,"EPHEMERIS_TYPE":0,"CLASSIFICATION_TYPE":"U","NORAD_CAT_ID":55974,"ELEMENT_SET_NO":999,"REV_AT_EPOCH":16966,"BSTAR":0.00044126,"MEAN_MOTION_DOT":0.000213,"MEAN_MOTION_DDOT":0},{"OBJECT_NAME":"TIANMU-1 05","OBJECT_ID":"2023-039C","EPOCH":"2026-04-05T19:19:49.280736","MEAN_MOTION":15.45184652,"ECCENTRICITY":0.0003218,"INCLINATION":97.5186,"RA_OF_ASC_NODE":266.7072,"ARG_OF_PERICENTER":44.5069,"MEAN_ANOMALY":315.6438,"EPHEMERIS_TYPE":0,"CLASSIFICATION_TYPE":"U","NORAD_CAT_ID":55975,"ELEMENT_SET_NO":999,"REV_AT_EPOCH":16963,"BSTAR":0.00043813,"MEAN_MOTION_DOT":0.00020725,"MEAN_MOTION_DDOT":0},{"OBJECT_NAME":"TIANMU-1 06","OBJECT_ID":"2023-039D","EPOCH":"2026-04-05T20:14:06.091584","MEAN_MOTION":15.45707759,"ECCENTRICITY":0.0003388,"INCLINATION":97.5195,"RA_OF_ASC_NODE":267.3119,"ARG_OF_PERICENTER":36.6912,"MEAN_ANOMALY":323.4568,"EPHEMERIS_TYPE":0,"CLASSIFICATION_TYPE":"U","NORAD_CAT_ID":55976,"ELEMENT_SET_NO":999,"REV_AT_EPOCH":16966,"BSTAR":0.00043672,"MEAN_MOTION_DOT":0.00021032,"MEAN_MOTION_DDOT":0},{"OBJECT_NAME":"FENGYUN 3G","OBJECT_ID":"2023-055A","EPOCH":"2026-04-05T20:31:17.125248","MEAN_MOTION":15.53646997,"ECCENTRICITY":0.0003989,"INCLINATION":49.9947,"RA_OF_ASC_NODE":358.9903,"ARG_OF_PERICENTER":49.5915,"MEAN_ANOMALY":310.54,"EPHEMERIS_TYPE":0,"CLASSIFICATION_TYPE":"U","NORAD_CAT_ID":56232,"ELEMENT_SET_NO":999,"REV_AT_EPOCH":16876,"BSTAR":0.00053031,"MEAN_MOTION_DOT":0.00034229,"MEAN_MOTION_DDOT":0},{"OBJECT_NAME":"METEOR-M2 3","OBJECT_ID":"2023-091A","EPOCH":"2026-04-05T20:50:55.896864","MEAN_MOTION":14.24040719,"ECCENTRICITY":0.0004433,"INCLINATION":98.6162,"RA_OF_ASC_NODE":152.3021,"ARG_OF_PERICENTER":36.0425,"MEAN_ANOMALY":324.1052,"EPHEMERIS_TYPE":0,"CLASSIFICATION_TYPE":"U","NORAD_CAT_ID":57166,"ELEMENT_SET_NO":999,"REV_AT_EPOCH":14422,"BSTAR":3.1005e-5,"MEAN_MOTION_DOT":2.8e-7,"MEAN_MOTION_DDOT":0},{"OBJECT_NAME":"TIANMU-1 07","OBJECT_ID":"2023-101A","EPOCH":"2026-04-05T20:54:35.019360","MEAN_MOTION":15.2941229,"ECCENTRICITY":0.0004426,"INCLINATION":97.2665,"RA_OF_ASC_NODE":148.2088,"ARG_OF_PERICENTER":78.399,"MEAN_ANOMALY":281.7747,"EPHEMERIS_TYPE":0,"CLASSIFICATION_TYPE":"U","NORAD_CAT_ID":57399,"ELEMENT_SET_NO":999,"REV_AT_EPOCH":15059,"BSTAR":0.00029824,"MEAN_MOTION_DOT":8.436e-5,"MEAN_MOTION_DDOT":0},{"OBJECT_NAME":"TIANMU-1 08","OBJECT_ID":"2023-101B","EPOCH":"2026-04-04T12:43:41.079648","MEAN_MOTION":15.29475906,"ECCENTRICITY":0.0005376,"INCLINATION":97.2662,"RA_OF_ASC_NODE":146.6773,"ARG_OF_PERICENTER":60.6646,"MEAN_ANOMALY":299.5131,"EPHEMERIS_TYPE":0,"CLASSIFICATION_TYPE":"U","NORAD_CAT_ID":57400,"ELEMENT_SET_NO":999,"REV_AT_EPOCH":15038,"BSTAR":1.8611e-5,"MEAN_MOTION_DOT":4.59e-6,"MEAN_MOTION_DDOT":0},{"OBJECT_NAME":"TIANMU-1 09","OBJECT_ID":"2023-101C","EPOCH":"2026-04-05T21:18:42.189984","MEAN_MOTION":15.2943446,"ECCENTRICITY":0.0004868,"INCLINATION":97.2612,"RA_OF_ASC_NODE":147.4599,"ARG_OF_PERICENTER":75.7161,"MEAN_ANOMALY":284.462,"EPHEMERIS_TYPE":0,"CLASSIFICATION_TYPE":"U","NORAD_CAT_ID":57401,"ELEMENT_SET_NO":999,"REV_AT_EPOCH":15059,"BSTAR":0.00032728,"MEAN_MOTION_DOT":9.272e-5,"MEAN_MOTION_DDOT":0}]
